{
  "type": "FeatureCollection",
  "features": [
    {
      "type": "Feature",
      "properties": {
        "norad_id": 38809,
        "name": "FENGYUN 1C DEB",
        "group": "fengyun-1c-debris",
        "lat": -79.8515620754016,
        "lon": 111.70962476160128,
        "alt_km": 824.4353331019256,
        "timestamp": "2025-12-04T21:36:16.162842+00:00",
        "meta_object_name": "FENGYUN 1C DEB",
        "meta_object_id": "1999-025EUZ",
        "meta_epoch": "2025-12-04T06:48:01.653408",
        "meta_mean_motion": 14.18132984,
        "meta_eccentricity": 0.02232205,
        "meta_inclination": 98.5895,
        "meta_ra_of_asc_node": 348.7183,
        "meta_arg_of_pericenter": 352.4366,
        "meta_mean_anomaly": 7.3463,
        "meta_ephemeris_type": 0,
        "meta_classification_type": "U",
        "meta_norad_cat_id": 38809,
        "meta_element_set_no": 999,
        "meta_rev_at_epoch": 69086,
        "meta_bstar": 0.0011105075,
        "meta_mean_motion_dot": 2.872e-05,
        "meta_mean_motion_ddot": 0,
        "tle_line1": "1 38809U 99025EUZ 25338.28335247  .00002872  00000+0  11105-2 0  9996",
        "tle_line2": "2 38809  98.5895 348.7183 0223220 352.4366   7.3463 14.18132984690861"
      },
      "geometry": {
        "type": "Point",
        "coordinates": [
          111.70962476160128,
          -79.8515620754016
        ]
      }
    },
    {
      "type": "Feature",
      "properties": {
        "norad_id": 38813,
        "name": "FENGYUN 1C DEB",
        "group": "fengyun-1c-debris",
        "lat": -46.19910918659608,
        "lon": -14.48489884146613,
        "alt_km": 836.0266922093579,
        "timestamp": "2025-12-04T21:36:16.162852+00:00",
        "meta_object_name": "FENGYUN 1C DEB",
        "meta_object_id": "1999-025EVD",
        "meta_epoch": "2025-12-01T17:44:02.872896",
        "meta_mean_motion": 14.20124404,
        "meta_eccentricity": 0.00061305,
        "meta_inclination": 99.3455,
        "meta_ra_of_asc_node": 332.2907,
        "meta_arg_of_pericenter": 143.0544,
        "meta_mean_anomaly": 217.1054,
        "meta_ephemeris_type": 0,
        "meta_classification_type": "U",
        "meta_norad_cat_id": 38813,
        "meta_element_set_no": 999,
        "meta_rev_at_epoch": 48094,
        "meta_bstar": 0.00057863014,
        "meta_mean_motion_dot": 1.185e-05,
        "meta_mean_motion_ddot": 0,
        "tle_line1": "1 38813U 99025EVD 25335.73892214  .00001185  00000+0  57863-3 0  9998",
        "tle_line2": "2 38813  99.3455 332.2907 0006130 143.0544 217.1054 14.20124404480944"
      },
      "geometry": {
        "type": "Point",
        "coordinates": [
          -14.48489884146613,
          -46.19910918659608
        ]
      }
    },
    {
      "type": "Feature",
      "properties": {
        "norad_id": 38817,
        "name": "FENGYUN 1C DEB",
        "group": "fengyun-1c-debris",
        "lat": -81.1732660373669,
        "lon": -46.83975206718676,
        "alt_km": 1248.8732843494427,
        "timestamp": "2025-12-04T21:36:16.162864+00:00",
        "meta_object_name": "FENGYUN 1C DEB",
        "meta_object_id": "1999-025EVH",
        "meta_epoch": "2025-12-03T10:41:28.355712",
        "meta_mean_motion": 13.57640916,
        "meta_eccentricity": 0.02907998,
        "meta_inclination": 98.6006,
        "meta_ra_of_asc_node": 208.9365,
        "meta_arg_of_pericenter": 68.5289,
        "meta_mean_anomaly": 294.6598,
        "meta_ephemeris_type": 0,
        "meta_classification_type": "U",
        "meta_norad_cat_id": 38817,
        "meta_element_set_no": 999,
        "meta_rev_at_epoch": 65708,
        "meta_bstar": 0.0025283462,
        "meta_mean_motion_dot": 2.357e-05,
        "meta_mean_motion_ddot": 0,
        "tle_line1": "1 38817U 99025EVH 25337.44546708  .00002357  00000+0  25283-2 0  9998",
        "tle_line2": "2 38817  98.6006 208.9365 0290799  68.5289 294.6598 13.57640916657086"
      },
      "geometry": {
        "type": "Point",
        "coordinates": [
          -46.83975206718676,
          -81.1732660373669
        ]
      }
    },
    {
      "type": "Feature",
      "properties": {
        "norad_id": 38818,
        "name": "FENGYUN 1C DEB",
        "group": "fengyun-1c-debris",
        "lat": 43.12956203273477,
        "lon": 27.58114059521489,
        "alt_km": 743.9140025717652,
        "timestamp": "2025-12-04T21:36:16.162874+00:00",
        "meta_object_name": "FENGYUN 1C DEB",
        "meta_object_id": "1999-025EVJ",
        "meta_epoch": "2025-11-27T09:30:24.153696",
        "meta_mean_motion": 14.39418793,
        "meta_eccentricity": 0.00885007,
        "meta_inclination": 98.3025,
        "meta_ra_of_asc_node": 28.1739,
        "meta_arg_of_pericenter": 145.1281,
        "meta_mean_anomaly": 276.4662,
        "meta_ephemeris_type": 0,
        "meta_classification_type": "U",
        "meta_norad_cat_id": 38818,
        "meta_element_set_no": 999,
        "meta_rev_at_epoch": 67027,
        "meta_bstar": 0.00050962146,
        "meta_mean_motion_dot": 1.618e-05,
        "meta_mean_motion_ddot": 0,
        "tle_line1": "1 38818U 99025EVJ 25331.39611289  .00001618  00000+0  50962-3 0  9996",
        "tle_line2": "2 38818  98.3025  28.1739 0088500 145.1281 276.4662 14.39418793670274"
      },
      "geometry": {
        "type": "Point",
        "coordinates": [
          27.58114059521489,
          43.12956203273477
        ]
      }
    },
    {
      "type": "Feature",
      "properties": {
        "norad_id": 38819,
        "name": "FENGYUN 1C DEB",
        "group": "fengyun-1c-debris",
        "lat": -32.19982001265298,
        "lon": 146.44603180295525,
        "alt_km": 776.5580838852165,
        "timestamp": "2025-12-04T21:36:16.162886+00:00",
        "meta_object_name": "FENGYUN 1C DEB",
        "meta_object_id": "1999-025EVK",
        "meta_epoch": "2025-12-04T05:27:10.387584",
        "meta_mean_motion": 14.1934854,
        "meta_eccentricity": 0.00793999,
        "meta_inclination": 98.6177,
        "meta_ra_of_asc_node": 331.2713,
        "meta_arg_of_pericenter": 219.1984,
        "meta_mean_anomaly": 156.6106,
        "meta_ephemeris_type": 0,
        "meta_classification_type": "U",
        "meta_norad_cat_id": 38819,
        "meta_element_set_no": 999,
        "meta_rev_at_epoch": 63357,
        "meta_bstar": 0.00075514368,
        "meta_mean_motion_dot": 1.594e-05,
        "meta_mean_motion_ddot": 0,
        "tle_line1": "1 38819U 99025EVK 25338.22720356  .00001594  00000+0  75514-3 0  9995",
        "tle_line2": "2 38819  98.6177 331.2713 0079399 219.1984 156.6106 14.19348540633578"
      },
      "geometry": {
        "type": "Point",
        "coordinates": [
          146.44603180295525,
          -32.19982001265298
        ]
      }
    },
    {
      "type": "Feature",
      "properties": {
        "norad_id": 38824,
        "name": "FENGYUN 1C DEB",
        "group": "fengyun-1c-debris",
        "lat": 28.769120429803795,
        "lon": 106.99858737929,
        "alt_km": 911.4073668733372,
        "timestamp": "2025-12-04T21:36:16.162896+00:00",
        "meta_object_name": "FENGYUN 1C DEB",
        "meta_object_id": "1999-025EVQ",
        "meta_epoch": "2025-11-20T14:24:21.461760",
        "meta_mean_motion": 14.13875773,
        "meta_eccentricity": 0.00960414,
        "meta_inclination": 99.2955,
        "meta_ra_of_asc_node": 97.2934,
        "meta_arg_of_pericenter": 263.2679,
        "meta_mean_anomaly": 95.7556,
        "meta_ephemeris_type": 0,
        "meta_classification_type": "U",
        "meta_norad_cat_id": 38824,
        "meta_element_set_no": 999,
        "meta_rev_at_epoch": 68824,
        "meta_bstar": 0.0027703315,
        "meta_mean_motion_dot": 5.443e-05,
        "meta_mean_motion_ddot": 0,
        "tle_line1": "1 38824U 99025EVQ 25324.60024840  .00005443  00000+0  27703-2 0  9996",
        "tle_line2": "2 38824  99.2955  97.2934 0096041 263.2679  95.7556 14.13875773688246"
      },
      "geometry": {
        "type": "Point",
        "coordinates": [
          106.99858737929,
          28.769120429803795
        ]
      }
    },
    {
      "type": "Feature",
      "properties": {
        "norad_id": 38827,
        "name": "FENGYUN 1C DEB",
        "group": "fengyun-1c-debris",
        "lat": 46.36561555334376,
        "lon": -169.02586258710664,
        "alt_km": 920.6202761650493,
        "timestamp": "2025-12-04T21:36:16.162906+00:00",
        "meta_object_name": "FENGYUN 1C DEB",
        "meta_object_id": "1999-025EVT",
        "meta_epoch": "2025-12-02T06:58:24.042720",
        "meta_mean_motion": 14.3273979,
        "meta_eccentricity": 0.02171,
        "meta_inclination": 98.388,
        "meta_ra_of_asc_node": 359.5433,
        "meta_arg_of_pericenter": 344.0092,
        "meta_mean_anomaly": 15.4311,
        "meta_ephemeris_type": 0,
        "meta_classification_type": "U",
        "meta_norad_cat_id": 38827,
        "meta_element_set_no": 999,
        "meta_rev_at_epoch": 60910,
        "meta_bstar": 0.0011390004,
        "meta_mean_motion_dot": 3.982e-05,
        "meta_mean_motion_ddot": 0,
        "tle_line1": "1 38827U 99025EVT 25336.29055605  .00003982  00000+0  11390-2 0  9991",
        "tle_line2": "2 38827  98.3880 359.5433 0217100 344.0092  15.4311 14.32739790609107"
      },
      "geometry": {
        "type": "Point",
        "coordinates": [
          -169.02586258710664,
          46.36561555334376
        ]
      }
    }
  ]
}